{
  "norad_id": 57928,
  "name": "STARLINK-30448",
  "history": [
    {
      "epoch": "2026-04-13T02:52:06.394080Z",
      "apogee_km": 486.49849884037394,
      "perigee_km": 484.7299846954211,
      "latitude_deg": 1.0212258069690897e-05,
      "longitude_deg": -110.18350307036282,
      "height_km": 485.2788387559925,
      "semi_major_axis_km": 6863.751241767897,
      "eccentricity": 0.00012883,
      "inclination_deg": 43.0018,
      "raan_deg": 134.158,
      "arg_perigee_deg": 277.2964,
      "mean_anomaly_deg": 82.7741,
      "mean_motion_rev_day": 15.26723741
    },
    {
      "epoch": "2026-04-14T08:42:03.685824Z",
      "apogee_km": 486.4080229519059,
      "perigee_km": 484.7356116614801,
      "latitude_deg": 4.3275905505123264e-05,
      "longitude_deg": 154.09163708628074,
      "height_km": 485.218543877838,
      "semi_major_axis_km": 6863.708817306692,
      "eccentricity": 0.00012183,
      "inclination_deg": 43.0013,
      "raan_deg": 127.147,
      "arg_perigee_deg": 278.9473,
      "mean_anomaly_deg": 81.1241,
      "mean_motion_rev_day": 15.26737896
    },
    {
      "epoch": "2026-04-15T08:15:10.447488Z",
      "apogee_km": 486.36628982506863,
      "perigee_km": 484.72518328275964,
      "latitude_deg": -2.1549889060927654e-05,
      "longitude_deg": 154.3105547364844,
      "height_km": 485.1507671459077,
      "semi_major_axis_km": 6863.682736553914,
      "eccentricity": 0.00011955,
      "inclination_deg": 43.0014,
      "raan_deg": 121.6114,
      "arg_perigee_deg": 282.0813,
      "mean_anomaly_deg": 77.9904,
      "mean_motion_rev_day": 15.26746598
    },
    {
      "epoch": "2026-04-16T17:13:31.891008Z",
      "apogee_km": 486.2859077922667,
      "perigee_km": 484.78688152287305,
      "latitude_deg": 6.5991037531575e-05,
      "longitude_deg": 10.618265240759552,
      "height_km": 485.10558888354893,
      "semi_major_axis_km": 6863.67339465757,
      "eccentricity": 0.0001092,
      "inclination_deg": 43.0021,
      "raan_deg": 113.8625,
      "arg_perigee_deg": 286.0758,
      "mean_anomaly_deg": 73.9974,
      "mean_motion_rev_day": 15.26749715
    },
    {
      "epoch": "2026-04-17T08:55:37.120224Z",
      "apogee_km": 486.24415008812684,
      "perigee_km": 484.85727334909825,
      "latitude_deg": -5.012987122854283e-05,
      "longitude_deg": 130.76261823258642,
      "height_km": 485.22704850036536,
      "semi_major_axis_km": 6863.687711718612,
      "eccentricity": 0.00010103,
      "inclination_deg": 43.0013,
      "raan_deg": 110.1736,
      "arg_perigee_deg": 278.314,
      "mean_anomaly_deg": 81.7596,
      "mean_motion_rev_day": 15.26744938
    },
    {
      "epoch": "2026-04-18T16:19:46.015680Z",
      "apogee_km": 486.244417459131,
      "perigee_km": 484.84559906584764,
      "latitude_deg": 3.0995490288417772e-06,
      "longitude_deg": 11.055257660818475,
      "height_km": 485.1800200413304,
      "semi_major_axis_km": 6863.682008262489,
      "eccentricity": 0.0001019,
      "inclination_deg": 43.0027,
      "raan_deg": 102.7929,
      "arg_perigee_deg": 281.6931,
      "mean_anomaly_deg": 78.3806,
      "mean_motion_rev_day": 15.26746841
    },
    {
      "epoch": "2026-04-19T15:52:52.859424Z",
      "apogee_km": 486.40916386248045,
      "perigee_km": 484.6822612919959,
      "latitude_deg": -1.3187527690599397e-06,
      "longitude_deg": 11.272894308301755,
      "height_km": 485.15046872268897,
      "semi_major_axis_km": 6863.682712577238,
      "eccentricity": 0.0001258,
      "inclination_deg": 43.0019,
      "raan_deg": 97.2563,
      "arg_perigee_deg": 281.4986,
      "mean_anomaly_deg": 78.5724,
      "mean_motion_rev_day": 15.26746606
    },
    {
      "epoch": "2026-04-20T06:00:39.114144Z",
      "apogee_km": 486.91137748765686,
      "perigee_km": 483.8214282556837,
      "latitude_deg": -1.554438179868593e-05,
      "longitude_deg": 155.42807158972622,
      "height_km": 484.1251646561938,
      "semi_major_axis_km": 6863.50340287167,
      "eccentricity": 0.0002251,
      "inclination_deg": 43.0027,
      "raan_deg": 93.9345,
      "arg_perigee_deg": 311.2513,
      "mean_anomaly_deg": 48.8144,
      "mean_motion_rev_day": 15.26806436
    }
  ]
}